NORAD_CAT_ID,OBJECT_NAME,OBJECT_TYPE,EPOCH,MEAN_MOTION,ECCENTRICITY,INCLINATION,RA_OF_ASC_NODE,ARG_OF_PERICENTER,MEAN_ANOMALY,BSTAR,MEAN_MOTION_DOT,MEAN_MOTION_DDOT,TLE_LINE0,TLE_LINE1,TLE_LINE2,SEMIMAJOR_AXIS,PERIOD,APOGEE,PERIGEE,DECAYED
53901.0,STARLINK-5024,PAYLOAD,2023-12-14 09:18:53,15.08842137,0.0001881,53.2183,28.4396,60.3026,299.8154,0.00011411,1.529e-05,0.0,0 STARLINK-5024,1 53901U 22119R   23348.38811989  .00001529  00000-0  11411-3 0  9998,2 53901  53.2183  28.4396 0001881  60.3026 299.8154 15.08842137 68033,6917.874,95.437,541.04,538.438,0.0
53901.0,STARLINK-5024,PAYLOAD,2023-12-15 09:09:40,15.088447,0.0001413,53.217,23.9849,83.6657,276.4496,5.5491e-05,5.95e-06,0.0,0 STARLINK-5024,1 53901U 22119R   23349.38171549  .00000595  00000-0  55491-4 0  9999,2 53901  53.2170  23.9849 0001413  83.6657 276.4496 15.08844700 68602,6917.866,95.437,540.709,538.754,0.0
53901.0,STARLINK-5024,PAYLOAD,2023-12-16 09:00:27,15.08837995,0.0001439,53.2191,19.5245,103.6143,256.501,4.2935e-05,3.95e-06,0.0,0 STARLINK-5024,1 53901U 22119R   23350.37532168  .00000395  00000-0  42935-4 0  9995,2 53901  53.2191  19.5245 0001439 103.6143 256.5010 15.08837995 68336,6917.887,95.438,540.747,538.756,0.0
53901.0,STARLINK-5024,PAYLOAD,2023-12-17 08:51:14,15.08840879,0.0001552,53.2185,15.0584,111.2137,248.9021,6.7256e-05,7.83e-06,0.0,0 STARLINK-5024,1 53901U 22119R   23351.36892156  .00000783  00000-0  67256-4 0  9995,2 53901  53.2185  15.0584 0001552 111.2137 248.9021 15.08840879 68905,6917.878,95.437,540.816,538.669,0.0
53901.0,STARLINK-5024,PAYLOAD,2023-12-18 07:06:37,15.08863205,0.0001515,53.2182,10.8978,102.9703,257.1458,0.00041929,6.395e-05,0.0,0 STARLINK-5024,1 53901U 22119R   23352.29626681  .00006395  00000-0  41929-3 0  9999,2 53901  53.2182  10.8978 0001515 102.9703 257.1458 15.08863205 68620,6917.809,95.436,540.723,538.626,0.0
53901.0,STARLINK-5024,PAYLOAD,2023-12-19 08:32:48,15.08831048,0.0001448,53.2159,6.1311,128.9822,231.13,-0.0003305,-5.543e-05,0.0,0 STARLINK-5024,1 53901U 22119R   23353.35611650 -.00005543  00000-0 -33050-3 0  9999,2 53901  53.2159   6.1311 0001448 128.9822 231.1300 15.08831048 68783,6917.908,95.438,540.774,538.771,0.0
53901.0,STARLINK-5024,PAYLOAD,2023-12-20 08:23:36,15.08838735,0.0001742,53.2173,1.6758,72.9734,287.1449,0.00045463,6.955e-05,0.0,0 STARLINK-5024,1 53901U 22119R   23354.34972812  .00006955  00000-0  45463-3 0  9996,2 53901  53.2173   1.6758 0001742  72.9734 287.1449 15.08838735 69350,6917.884,95.438,540.954,538.544,0.0
53901.0,STARLINK-5024,PAYLOAD,2023-12-21 06:39:00,15.08858619,0.0002447,53.218,357.5107,56.8001,303.3225,0.00075576,0.00011767,0.0,0 STARLINK-5024,1 53901U 22119R   23355.27708810  .00011767  00000-0  75576-3 0  9999,2 53901  53.2180 357.5107 0002447  56.8001 303.3225 15.08858619 69491,6917.823,95.436,541.381,537.996,0.0
53901.0,STARLINK-5024,PAYLOAD,2023-12-22 03:19:01,15.08844847,0.0001585,53.2176,353.6473,92.6502,267.4671,0.00020765,3.019e-05,0.0,0 STARLINK-5024,1 53901U 22119R   23356.13820649  .00003019  00000-0  20765-3 0  9991,2 53901  53.2176 353.6473 0001585  92.6502 267.4671 15.08844847 69207,6917.866,95.437,540.827,538.634,0.0
53901.0,STARLINK-5024,PAYLOAD,2023-12-22 06:29:47,15.08842482,0.0001672,53.2168,353.0522,106.4749,253.6427,8.9154e-05,1.131e-05,0.0,0 STARLINK-5024,1 53901U 22119R   23356.27068604  .00001131  00000-0  89154-4 0  9992,2 53901  53.2168 353.0522 0001672 106.4749 253.6427 15.08842482 69648,6917.873,95.437,540.894,538.581,0.0
53901.0,STARLINK-5024,PAYLOAD,2023-12-23 03:09:48,15.08837679,0.0001712,53.2176,349.1866,112.2564,247.861,0.00010962,1.457e-05,0.0,0 STARLINK-5024,1 53901U 22119R   23357.13181046  .00001457  00000-0  10962-3 0  9995,2 53901  53.2176 349.1866 0001712 112.2564 247.8610 15.08837679 69358,6917.887,95.438,540.937,538.568,0.0
53901.0,STARLINK-5024,PAYLOAD,2023-12-23 09:31:20,15.08846357,0.0001762,53.2172,347.9916,102.1138,258.0051,-1.4886e-05,-5.25e-06,0.0,0 STARLINK-5024,1 53901U 22119R   23357.39676664 -.00000525  00000-0 -14886-4 0  9995,2 53901  53.2172 347.9916 0001762 102.1138 258.0051 15.08846357 69813,6917.861,95.437,540.945,538.507,0.0
53901.0,STARLINK-5024,PAYLOAD,2023-12-24 06:11:22,15.08839601,0.0001715,53.217,344.1237,104.8276,255.2906,0.00015954,2.252e-05,0.0,0 STARLINK-5024,1 53901U 22119R   23358.25789369  .00002252  00000-0  15954-3 0  9991,2 53901  53.2170 344.1237 0001715 104.8276 255.2906 15.08839601 69526,6917.882,95.438,540.933,538.56,0.0
53901.0,STARLINK-5024,PAYLOAD,2023-12-25 06:02:08,15.08847531,0.0001632,53.2176,339.6672,108.2757,251.8413,0.00016612,2.357e-05,0.0,0 STARLINK-5024,1 53901U 22119R   23359.25149056  .00002357  00000-0  16612-3 0  9993,2 53901  53.2176 339.6672 0001632 108.2757 251.8413 15.08847531 70094,6917.857,95.437,540.851,538.593,0.0
53901.0,STARLINK-5024,PAYLOAD,2023-12-26 02:42:10,15.08837826,0.0001707,53.218,335.8051,103.5559,256.5623,5.1306e-05,5.29e-06,0.0,0 STARLINK-5024,1 53901U 22119R   23360.11261745  .00000529  00000-0  51306-4 0  9999,2 53901  53.2180 335.8051 0001707 103.5559 256.5623 15.08837826 69807,6917.887,95.438,540.933,538.571,0.0
53901.0,STARLINK-5024,PAYLOAD,2023-12-26 07:28:19,15.08840292,0.0001665,53.2184,334.912,99.9194,260.1987,9.7111e-05,1.258e-05,0.0,0 STARLINK-5024,1 53901U 22119R   23360.31133744  .00001258  00000-0  97111-4 0  9992,2 53901  53.2184 334.9120 0001665  99.9194 260.1987 15.08840292 70250,6917.879,95.438,540.896,538.593,0.0
53901.0,STARLINK-5024,PAYLOAD,2023-12-27 04:08:20,15.08844798,0.0001677,53.2175,331.0455,95.966,264.1523,7.6477e-05,9.29e-06,0.0,0 STARLINK-5024,1 53901U 22119R   23361.17245476  .00000929  00000-0  76477-4 0  9999,2 53901  53.2175 331.0455 0001677  95.9660 264.1523 15.08844798 69967,6917.866,95.437,540.891,538.571,0.0
53901.0,STARLINK-5024,PAYLOAD,2023-12-27 07:19:06,15.08851253,0.0001615,53.2179,330.4513,89.5946,270.5232,0.00019387,2.8e-05,0.0,0 STARLINK-5024,1 53901U 22119R   23361.30493233  .00002800  00000-0  19387-3 0  9996,2 53901  53.2179 330.4513 0001615  89.5946 270.5232 15.08851253 70400,6917.846,95.437,540.828,538.594,0.0
53901.0,STARLINK-5024,PAYLOAD,2023-12-28 03:59:07,15.08841514,0.0001608,53.219,326.581,82.4618,277.6557,0.00010102,1.32e-05,0.0,0 STARLINK-5024,1 53901U 22119R   23362.16605731  .00001320  00000-0  10102-3 0  9991,2 53901  53.2190 326.5810 0001608  82.4618 277.6557 15.08841514 70114,6917.876,95.437,540.853,538.628,0.0
53901.0,STARLINK-5024,PAYLOAD,2023-12-28 05:34:30,15.08842043,0.000147,53.2178,326.2863,84.8041,275.3119,0.00010836,1.437e-05,0.0,0 STARLINK-5024,1 53901U 22119R   23362.23229738  .00001437  00000-0  10836-3 0  9991,2 53901  53.2178 326.2863 0001470  84.8041 275.3119 15.08842043 70542,6917.874,95.437,540.756,538.722,0.0
53901.0,STARLINK-5024,PAYLOAD,2023-12-28 21:28:21,15.0884522,0.0001486,53.2179,323.317,86.9666,273.1497,-8.6677e-06,-4.26e-06,0.0,0 STARLINK-5024,1 53901U 22119R   23362.89469790 -.00000426  00000-0 -86677-5 0  9994,2 53901  53.2179 323.3170 0001486  86.9666 273.1497 15.08845220 70641,6917.864,95.437,540.757,538.701,0.0
53901.0,STARLINK-5024,PAYLOAD,2023-12-29 07:00:40,15.08853702,0.0001403,53.2173,321.5298,98.2201,261.895,0.00015123,2.121e-05,0.0,0 STARLINK-5024,1 53901U 22119R   23363.29213091  .00002121  00000-0  15123-3 0  9998,2 53901  53.2173 321.5298 0001403  98.2201 261.8950 15.08853702 70288,6917.839,95.437,540.674,538.733,0.0
53901.0,STARLINK-5024,PAYLOAD,2023-12-30 03:40:41,15.08840989,0.0001643,53.2176,317.6679,81.1821,278.9357,0.00011218,1.498e-05,0.0,0 STARLINK-5024,1 53901U 22119R   23364.15326108  .00001498  00000-0  11218-3 0  9995,2 53901  53.2176 317.6679 0001643  81.1821 278.9357 15.08840989 70413,6917.877,95.437,540.879,538.606,0.0
53901.0,STARLINK-5024,PAYLOAD,2023-12-30 06:51:27,15.08846228,0.0001488,53.2173,317.0695,95.5371,264.579,0.0001788,2.559e-05,0.0,0 STARLINK-5024,1 53901U 22119R   23364.28573720  .00002559  00000-0  17880-3 0  9993,2 53901  53.2173 317.0695 0001488  95.5371 264.5790 15.08846228 70850,6917.861,95.437,540.756,538.697,0.0
53901.0,STARLINK-5024,PAYLOAD,2023-12-31 03:31:28,15.08850537,0.0001283,53.2174,313.2027,94.3612,265.7527,0.00016679,2.368e-05,0.0,0 STARLINK-5024,1 53901U 22119R   23365.14685373  .00002368  00000-0  16679-3 0  9990,2 53901  53.2174 313.2027 0001283  94.3612 265.7527 15.08850537 70563,6917.848,95.437,540.601,538.826,0.0
53901.0,STARLINK-5024,PAYLOAD,2024-01-01 03:22:15,15.08836564,0.000149,53.2177,308.7421,99.2285,260.8876,-1.4673e-05,-5.21e-06,0.0,0 STARLINK-5024,1 53901U 22119R   24001.14046244 -.00000521  00000-0 -14673-4 0  9990,2 53901  53.2177 308.7421 0001490  99.2285 260.8876 15.08836564 70717,6917.891,95.438,540.787,538.725,0.0
53901.0,STARLINK-5024,PAYLOAD,2024-01-01 19:16:07,15.08840244,0.0001328,53.2173,305.7697,85.516,274.5984,0.00011306,1.512e-05,0.0,0 STARLINK-5024,1 53901U 22119R   24001.80286254  .00001512  00000-0  11306-3 0  9998,2 53901  53.2173 305.7697 0001328  85.5160 274.5984 15.08840244 71235,6917.88,95.438,540.663,538.826,0.0
53901.0,STARLINK-5024,PAYLOAD,2024-01-02 03:13:02,15.08857499,0.0001496,53.2176,304.2817,92.2583,267.858,0.00024086,3.549e-05,0.0,0 STARLINK-5024,1 53901U 22119R   24002.13405407  .00003549  00000-0  24086-3 0  9999,2 53901  53.2176 304.2817 0001496  92.2583 267.8580 15.08857499 70861,6917.827,95.436,540.727,538.657,0.0
53901.0,STARLINK-5024,PAYLOAD,2024-01-02 04:48:25,15.08858946,0.0001429,53.2172,303.984,78.3659,281.7493,0.00025465,3.769e-05,0.0,0 STARLINK-5024,1 53901U 22119R   24002.20029100  .00003769  00000-0  25465-3 0  9995,2 53901  53.2172 303.9840 0001429  78.3659 281.7493 15.08858946 71298,6917.822,95.436,540.676,538.699,0.0
53901.0,STARLINK-5024,PAYLOAD,2024-01-02 19:06:54,15.08843896,0.0001734,53.218,301.3183,74.2842,285.8341,0.00013804,1.91e-05,0.0,0 STARLINK-5024,1 53901U 22119R   24002.79645970  .00001910  00000-0  13804-3 0  9998,2 53901  53.2180 301.3183 0001734  74.2842 285.8341 15.08843896 70965,6917.868,95.437,540.933,538.534,0.0
